#aV2013 12 17  0  0  0.00000000     288 DD+AD WGS84 FIT  NGA
## 1771 172800.00000000   300.00000000 56643 0.0000000000000
+   31     1  2  3  4  5  6  7  8  9 10 11 12 13 14 15 16 17
+         18 19 20 21 22 23 24 25 26 27 28 29 31 32  0  0  0
+          0  0  0  0  0  0  0  0  0  0  0  0  0  0  0  0  0
+          0  0  0  0  0  0  0  0  0  0  0  0  0  0  0  0  0
+          0  0  0  0  0  0  0  0  0  0  0  0  0  0  0  0  0
++         2  2  2  2  2  2  2  2  2  2  2  2  2  2  2  2  2
++         2  2  2  2  2  2  2  2  2  2  2  2  2  2  0  0  0
++         0  0  0  0  0  0  0  0  0  0  0  0  0  0  0  0  0
++         0  0  0  0  0  0  0  0  0  0  0  0  0  0  0  0  0
++         0  0  0  0  0  0  0  0  0  0  0  0  0  0  0  0  0
%c cc cc ccc ccc cccc cccc cccc cccc ccccc ccccc ccccc ccccc
%c cc cc ccc ccc cccc cccc cccc cccc ccccc ccccc ccccc ccccc
%f  0.0000000  0.000000000  0.00000000000  0.000000000000000
%f  0.0000000  0.000000000  0.00000000000  0.000000000000000
%i    0    0    0    0      0      0      0      0         0
%i    0    0    0    0      0      0      0      0         0
/*      NGA, ST. LOUIS,MO.                                  
/*   EPHEMERIS COMPUTED FROM  1 DAYS OF DATA                
/*   EPOCHA SMOOTHER                                       
/* CCCCCCCCCCCCCCCCCCCCCCCCCCCCCCCCCCCCCCCCCCCCCCCCCCCCCCCCC
*  2013 12 17 20  5  0.00000000
P  1 -13236.763432  22824.184186  -2485.593831     94.040774                    
V  1  -4166.468493    965.545480  31606.505279      0.028251                    
P  2  19033.345407  -7643.569103 -16353.187045    467.448245                    
V  2  -9295.416138  19552.669853 -20169.260479      0.021936                    
P  3 -15885.575322   3516.689836  20486.269580    300.515046                    
V  3 -14888.951557 -22902.183386  -7250.870043      0.049598                    
P  4  14129.534383   7333.780014 -21578.327772      4.268904                    
V  4 -14628.971542  22407.601435  -1742.237521      0.003526                    
P  5  25735.642423  -2894.781203   6224.171187   -395.110310                    
V  5   7735.794677   3460.314438 -30023.580876      0.010019                    
P  6 -18474.852202  -4894.986191  18653.146107    197.306633                    
V  6 -10528.986364 -21057.168182 -15607.471650      0.162184                    
P  7  -1866.127620  21247.726128  15685.214268    292.630154                    
V  7 -12924.311243  15237.275362 -22586.168103      0.041990                    
P  8   6954.958006  13549.946311  21806.896907     10.633091                    
V  8 -18230.864147  20417.638515  -7502.882236      0.002021                    
P  9   8010.708056  13245.639571  21031.612619    291.199711                    
V  9 -16068.236078  22841.516298  -8206.782310      0.028793                    
P 10  22527.508254   9790.000079 -10957.294356   -106.289458                    
V 10 -13479.916021   1458.851841 -26800.790589     -0.015175                    
P 11 -12553.129991  21888.265585   7440.417928   -447.577992                    
V 11  -1948.811931 -11224.532003  28173.259922     -0.032949                    
P 12  13632.492329 -11637.586837 -19573.507176    174.606846                    
V 12  24525.037974   3532.506920  15219.893602      0.023042                    
P 13   4109.768817  25164.704916  -7297.903272     49.046297                    
V 13  -5213.575781  -7779.024137 -30447.037133     -0.037883                    
P 14 -14740.338816 -20238.587872  -8858.073531    207.513428                    
V 14  -2303.154792 -11471.631254  29191.042627     -0.011360                    
P 15   9335.888031 -14123.534730  20361.445251   -152.753492                    
V 15  13409.109737  22418.490315   9664.689217     -0.020044                    
P 16 -25838.916436   1371.984980   6726.413171   -238.527417                    
V 16  -8223.225637  -2622.859503 -30584.190455      0.012398                    
P 17  15354.388538  19931.321301  -8646.059704    -50.924455                    
V 17   2489.383220  11180.954006  29156.096596     -0.035318                    
P 18  -7918.390078 -15793.727206  20340.738836    291.005784                    
V 18  24963.263020    462.041221   9954.182681      0.021042                    
P 19 -10924.766070  11913.036818  20871.492868   -426.051215                    
V 19 -10519.104896 -24736.745713   8983.564013     -0.025720                    
P 20  -9729.550847  14874.002003 -19904.204175    145.419880                    
V 20 -25005.850032  -1569.939045  11233.442725      0.030558                    
P 21  -1596.025087 -20572.816587  17049.789466   -333.509149                    
V 21  13493.652407 -16026.237581 -19234.749323     -0.017330                    
P 22 -19577.697172 -11735.083656  13900.808503    201.336336                    
V 22  17510.605594  -1772.614208  23348.056126      0.022721                    
P 23  -3090.558206  20403.529022 -16396.538986     20.658937                    
V 23 -11205.568887 -18111.143978 -20705.326010     -0.033204                    
P 24  15645.879859 -21313.432847   2059.967361    -19.980458                    
V 24   1049.358498   3823.053503  31592.655302     -0.006632                    
P 25   -734.727256 -14978.161152 -21981.085606      3.043874                    
V 25  27683.564470   1583.520089  -1901.799501      0.026973                    
P 26  15302.007802    167.046138  21107.405228    219.515552                    
V 26   9634.189803  26548.949145  -6681.115428     -0.105967                    
P 27 -16676.040749  -1238.099086  20634.261254     -8.684638                    
V 27 -10889.244126 -23852.099927 -10204.856119     -0.027471                    
P 28  16509.952313  13265.998248  16730.597597    317.373688                    
V 28 -19974.444345  -1429.474607  21478.370535      0.030491                    
P 29  -2393.317853 -24167.250032 -10763.442732    496.002817                    
V 29   7489.760838  11689.241757 -27765.594073      0.030588                    
P 31 -14837.681261  -4059.001976 -21521.557690    331.253517                    
V 31  15695.835502 -22742.194998  -6189.302798      0.005000                    
P 32 -20266.718391   7724.578024 -14869.908871   -515.093945                    
V 32 -18657.094354  -5567.240605  22951.662870      0.054084                    
EOF
